DEMO9 (AURORA)          
1 48956U 21059CF  23150.32556710  .00006907  00000+0  31146-3 0  9998
2 48956  97.5993 285.8867 0014382 341.4436  18.6273 15.21263867106592
HAWK-3A                 
1 48957U 21059CG  23150.33253453  .00005594  00000+0  26049-3 0  9995
2 48957  97.5951 285.3217 0014754 346.1001  13.9826 15.20239650106576
SHERPA-FX2 & TAGSAT-2   
1 48958U 21059CH  23150.34401424  .00004647  00000+0  22171-3 0  9990
2 48958  97.5992 285.4380 0014826 343.8365  16.2394 15.19488826106565
LEMUR-2-CARLSANTAMARI   
1 48959U 21059CJ  23150.51828879  .00109323  00000+0  14255-2 0  9997
2 48959  97.5876 293.4264 0007613 305.6873  54.3673 15.58307033107133
ASTROCAST-0205          
1 48960U 21059CK  23150.32674979  .00005918  00000+0  27276-3 0  9991
2 48960  97.5892 285.2284 0011867 331.0291  29.0284 15.20602233106570
ASTROCAST-0202          
1 48961U 21059CL  23150.35993990  .00005053  00000+0  22643-3 0  9995
2 48961  97.5904 286.2354 0011363 339.5597  20.5182 15.21648358106636
GHALIB                  
1 48962U 21059CM  23150.35330095  .00021023  00000+0  74323-3 0  9994
2 48962  97.5902 286.8539 0005858 335.3975  24.6984 15.29191904106680
NAPA-2                  
1 48963U 21059CN  23150.60895339  .00004538  00000+0  23012-3 0  9991
2 48963  97.5935 283.1349 0011756 340.5696  19.5087 15.17406555106469
SPARTAN                 
1 48964U 21059CP  23150.37631075  .00005438  00000+0  26057-3 0  9993
2 48964  97.5913 284.1932 0006569 345.8027  14.3021 15.19337206106534
W-CUBE                  
1 48965U 21059CQ  23150.31743490  .00007009  00000+0  33435-3 0  9997
2 48965  97.5971 283.8097 0010604 335.5864  24.4867 15.19356685106450
NEPT-1                  
1 48966U 21059CR  23150.52730398  .00013602  00000+0  51834-3 0  9993
2 48966  97.5828 285.7520 0005808 326.5187  33.5683 15.26818008106673
ONEWEB-0249             
1 48967U 21060A   23150.39265047 -.00000043  00000+0 -14691-3 0  9992
2 48967  87.9018  90.5076 0002053  83.1342 277.0023 13.16591687 93052
ONEWEB-0250             
1 48968U 21060B   23150.32088974  .00000023  00000+0  27377-4 0  9990
2 48968  87.9019  90.5306 0002147  70.0964 290.0398 13.16594700 93025
ONEWEB-0252             
1 48970U 21060D   23150.34833384  .00000145  00000+0  34504-3 0  9992
2 48970  87.9026  90.5243 0002270  83.3095 276.8295 13.16593883 93091
ONEWEB-0253             
1 48971U 21060E   23150.33778466  .00000093  00000+0  20999-3 0  9996
2 48971  87.9129  90.5240 0002497  73.3430 286.7975 13.16596111 93021
ONEWEB-0254             
1 48972U 21060F   23150.34623377  .00000131  00000+0  30917-3 0  9992
2 48972  87.9026  90.5132 0002298  71.9650 288.1731 13.16594980 93023
ONEWEB-0255             
1 48973U 21060G   23150.38421228  .00000030  00000+0  44389-4 0  9995
2 48973  87.9017  90.5535 0002064  79.9823 280.1541 13.16592620 93101
