[{"OBJECT_NAME":"DEMO9 (AURORA)","OBJECT_ID":"2021-059CF","EPOCH":"2023-05-30T07:48:48.997440","MEAN_MOTION":15.21263867,"ECCENTRICITY":0.0014382,"INCLINATION":97.5993,"RA_OF_ASC_NODE":285.8867,"ARG_OF_PERICENTER":341.4436,"MEAN_ANOMALY":18.6273,"EPHEMERIS_TYPE":0,"CLASSIFICATION_TYPE":"U","NORAD_CAT_ID":48956,"ELEMENT_SET_NO":999,"REV_AT_EPOCH":10659,"BSTAR":0.00031146,"MEAN_MOTION_DOT":6.907e-5,"MEAN_MOTION_DDOT":0},{"OBJECT_NAME":"HAWK-3A","OBJECT_ID":"2021-059CG","EPOCH":"2023-05-30T07:58:50.983392","MEAN_MOTION":15.2023965,"ECCENTRICITY":0.0014754,"INCLINATION":97.5951,"RA_OF_ASC_NODE":285.3217,"ARG_OF_PERICENTER":346.1001,"MEAN_ANOMALY":13.9826,"EPHEMERIS_TYPE":0,"CLASSIFICATION_TYPE":"U","NORAD_CAT_ID":48957,"ELEMENT_SET_NO":999,"REV_AT_EPOCH":10657,"BSTAR":0.00026049,"MEAN_MOTION_DOT":5.594e-5,"MEAN_MOTION_DDOT":0},{"OBJECT_NAME":"SHERPA-FX2 & TAGSAT-2","OBJECT_ID":"2021-059CH","EPOCH":"2023-05-30T08:15:22.830336","MEAN_MOTION":15.19488826,"ECCENTRICITY":0.0014826,"INCLINATION":97.5992,"RA_OF_ASC_NODE":285.438,"ARG_OF_PERICENTER":343.8365,"MEAN_ANOMALY":16.2394,"EPHEMERIS_TYPE":0,"CLASSIFICATION_TYPE":"U","NORAD_CAT_ID":48958,"ELEMENT_SET_NO":999,"REV_AT_EPOCH":10656,"BSTAR":0.00022171,"MEAN_MOTION_DOT":4.647e-5,"MEAN_MOTION_DDOT":0},{"OBJECT_NAME":"LEMUR-2-CARLSANTAMARI","OBJECT_ID":"2021-059CJ","EPOCH":"2023-05-30T12:26:20.151456","MEAN_MOTION":15.58307033,"ECCENTRICITY":0.0007613,"INCLINATION":97.5876,"RA_OF_ASC_NODE":293.4264,"ARG_OF_PERICENTER":305.6873,"MEAN_ANOMALY":54.3673,"EPHEMERIS_TYPE":0,"CLASSIFICATION_TYPE":"U","NORAD_CAT_ID":48959,"ELEMENT_SET_NO":999,"REV_AT_EPOCH":10713,"BSTAR":0.0014255,"MEAN_MOTION_DOT":0.00109323,"MEAN_MOTION_DDOT":0},{"OBJECT_NAME":"ASTROCAST-0205","OBJECT_ID":"2021-059CK","EPOCH":"2023-05-30T07:50:31.181856","MEAN_MOTION":15.20602233,"ECCENTRICITY":0.0011867,"INCLINATION":97.5892,"RA_OF_ASC_NODE":285.2284,"ARG_OF_PERICENTER":331.0291,"MEAN_ANOMALY":29.0284,"EPHEMERIS_TYPE":0,"CLASSIFICATION_TYPE":"U","NORAD_CAT_ID":48960,"ELEMENT_SET_NO":999,"REV_AT_EPOCH":10657,"BSTAR":0.00027276,"MEAN_MOTION_DOT":5.918e-5,"MEAN_MOTION_DDOT":0},{"OBJECT_NAME":"ASTROCAST-0202","OBJECT_ID":"2021-059CL","EPOCH":"2023-05-30T08:38:18.807360","MEAN_MOTION":15.21648358,"ECCENTRICITY":0.0011363,"INCLINATION":97.5904,"RA_OF_ASC_NODE":286.2354,"ARG_OF_PERICENTER":339.5597,"MEAN_ANOMALY":20.5182,"EPHEMERIS_TYPE":0,"CLASSIFICATION_TYPE":"U","NORAD_CAT_ID":48961,"ELEMENT_SET_NO":999,"REV_AT_EPOCH":10663,"BSTAR":0.00022643,"MEAN_MOTION_DOT":5.053e-5,"MEAN_MOTION_DDOT":0},{"OBJECT_NAME":"GHALIB","OBJECT_ID":"2021-059CM","EPOCH":"2023-05-30T08:28:45.202080","MEAN_MOTION":15.29191904,"ECCENTRICITY":0.0005858,"INCLINATION":97.5902,"RA_OF_ASC_NODE":286.8539,"ARG_OF_PERICENTER":335.3975,"MEAN_ANOMALY":24.6984,"EPHEMERIS_TYPE":0,"CLASSIFICATION_TYPE":"U","NORAD_CAT_ID":48962,"ELEMENT_SET_NO":999,"REV_AT_EPOCH":10668,"BSTAR":0.00074323,"MEAN_MOTION_DOT":0.00021023,"MEAN_MOTION_DDOT":0},{"OBJECT_NAME":"NAPA-2","OBJECT_ID":"2021-059CN","EPOCH":"2023-05-30T14:36:53.572896","MEAN_MOTION":15.17406555,"ECCENTRICITY":0.0011756,"INCLINATION":97.5935,"RA_OF_ASC_NODE":283.1349,"ARG_OF_PERICENTER":340.5696,"MEAN_ANOMALY":19.5087,"EPHEMERIS_TYPE":0,"CLASSIFICATION_TYPE":"U","NORAD_CAT_ID":48963,"ELEMENT_SET_NO":999,"REV_AT_EPOCH":10646,"BSTAR":0.00023012,"MEAN_MOTION_DOT":4.538e-5,"MEAN_MOTION_DDOT":0},{"OBJECT_NAME":"SPARTAN","OBJECT_ID":"2021-059CP","EPOCH":"2023-05-30T09:01:53.248800","MEAN_MOTION":15.19337206,"ECCENTRICITY":0.0006569,"INCLINATION":97.5913,"RA_OF_ASC_NODE":284.1932,"ARG_OF_PERICENTER":345.8027,"MEAN_ANOMALY":14.3021,"EPHEMERIS_TYPE":0,"CLASSIFICATION_TYPE":"U","NORAD_CAT_ID":48964,"ELEMENT_SET_NO":999,"REV_AT_EPOCH":10653,"BSTAR":0.00026057,"MEAN_MOTION_DOT":5.438e-5,"MEAN_MOTION_DDOT":0},{"OBJECT_NAME":"W-CUBE","OBJECT_ID":"2021-059CQ","EPOCH":"2023-05-30T07:37:06.375360","MEAN_MOTION":15.19356685,"ECCENTRICITY":0.0010604,"INCLINATION":97.5971,"RA_OF_ASC_NODE":283.8097,"ARG_OF_PERICENTER":335.5864,"MEAN_ANOMALY":24.4867,"EPHEMERIS_TYPE":0,"CLASSIFICATION_TYPE":"U","NORAD_CAT_ID":48965,"ELEMENT_SET_NO":999,"REV_AT_EPOCH":10645,"BSTAR":0.00033435,"MEAN_MOTION_DOT":7.009e-5,"MEAN_MOTION_DDOT":0},{"OBJECT_NAME":"NEPT-1","OBJECT_ID":"2021-059CR","EPOCH":"2023-05-30T12:39:19.063872","MEAN_MOTION":15.26818008,"ECCENTRICITY":0.0005808,"INCLINATION":97.5828,"RA_OF_ASC_NODE":285.752,"ARG_OF_PERICENTER":326.5187,"MEAN_ANOMALY":33.5683,"EPHEMERIS_TYPE":0,"CLASSIFICATION_TYPE":"U","NORAD_CAT_ID":48966,"ELEMENT_SET_NO":999,"REV_AT_EPOCH":10667,"BSTAR":0.00051834,"MEAN_MOTION_DOT":0.00013602,"MEAN_MOTION_DDOT":0},{"OBJECT_NAME":"ONEWEB-0249","OBJECT_ID":"2021-060A","EPOCH":"2023-05-30T09:25:25.000608","MEAN_MOTION":13.16591687,"ECCENTRICITY":0.0002053,"INCLINATION":87.9018,"RA_OF_ASC_NODE":90.5076,"ARG_OF_PERICENTER":83.1342,"MEAN_ANOMALY":277.0023,"EPHEMERIS_TYPE":0,"CLASSIFICATION_TYPE":"U","NORAD_CAT_ID":48967,"ELEMENT_SET_NO":999,"REV_AT_EPOCH":9305,"BSTAR":-0.00014691,"MEAN_MOTION_DOT":-4.3e-7,"MEAN_MOTION_DDOT":0},{"OBJECT_NAME":"ONEWEB-0250","OBJECT_ID":"2021-060B","EPOCH":"2023-05-30T07:42:04.873536","MEAN_MOTION":13.165947,"ECCENTRICITY":0.0002147,"INCLINATION":87.9019,"RA_OF_ASC_NODE":90.5306,"ARG_OF_PERICENTER":70.0964,"MEAN_ANOMALY":290.0398,"EPHEMERIS_TYPE":0,"CLASSIFICATION_TYPE":"U","NORAD_CAT_ID":48968,"ELEMENT_SET_NO":999,"REV_AT_EPOCH":9302,"BSTAR":2.7377e-5,"MEAN_MOTION_DOT":2.3e-7,"MEAN_MOTION_DDOT":0},{"OBJECT_NAME":"ONEWEB-0252","OBJECT_ID":"2021-060D","EPOCH":"2023-05-30T08:21:36.043776","MEAN_MOTION":13.16593883,"ECCENTRICITY":0.000227,"INCLINATION":87.9026,"RA_OF_ASC_NODE":90.5243,"ARG_OF_PERICENTER":83.3095,"MEAN_ANOMALY":276.8295,"EPHEMERIS_TYPE":0,"CLASSIFICATION_TYPE":"U","NORAD_CAT_ID":48970,"ELEMENT_SET_NO":999,"REV_AT_EPOCH":9309,"BSTAR":0.00034504,"MEAN_MOTION_DOT":1.45e-6,"MEAN_MOTION_DDOT":0},{"OBJECT_NAME":"ONEWEB-0253","OBJECT_ID":"2021-060E","EPOCH":"2023-05-30T08:06:24.594624","MEAN_MOTION":13.16596111,"ECCENTRICITY":0.0002497,"INCLINATION":87.9129,"RA_OF_ASC_NODE":90.524,"ARG_OF_PERICENTER":73.343,"MEAN_ANOMALY":286.7975,"EPHEMERIS_TYPE":0,"CLASSIFICATION_TYPE":"U","NORAD_CAT_ID":48971,"ELEMENT_SET_NO":999,"REV_AT_EPOCH":9302,"BSTAR":0.00020999,"MEAN_MOTION_DOT":9.3e-7,"MEAN_MOTION_DDOT":0},{"OBJECT_NAME":"ONEWEB-0254","OBJECT_ID":"2021-060F","EPOCH":"2023-05-30T08:18:34.597728","MEAN_MOTION":13.1659498,"ECCENTRICITY":0.0002298,"INCLINATION":87.9026,"RA_OF_ASC_NODE":90.5132,"ARG_OF_PERICENTER":71.965,"MEAN_ANOMALY":288.1731,"EPHEMERIS_TYPE":0,"CLASSIFICATION_TYPE":"U","NORAD_CAT_ID":48972,"ELEMENT_SET_NO":999,"REV_AT_EPOCH":9302,"BSTAR":0.00030917,"MEAN_MOTION_DOT":1.31e-6,"MEAN_MOTION_DDOT":0},{"OBJECT_NAME":"ONEWEB-0255","OBJECT_ID":"2021-060G","EPOCH":"2023-05-30T09:13:15.940992","MEAN_MOTION":13.1659262,"ECCENTRICITY":0.0002064,"INCLINATION":87.9017,"RA_OF_ASC_NODE":90.5535,"ARG_OF_PERICENTER":79.9823,"MEAN_ANOMALY":280.1541,"EPHEMERIS_TYPE":0,"CLASSIFICATION_TYPE":"U","NORAD_CAT_ID":48973,"ELEMENT_SET_NO":999,"REV_AT_EPOCH":9310,"BSTAR":4.4389e-5,"MEAN_MOTION_DOT":3.0e-7,"MEAN_MOTION_DDOT":0}]
